#cP2016 11  1  0  0  0.00000000      96 d+D   IGb08 FIT AIUB
## 1921 172800.00000000   900.00000000 57693 0.0000000000000
+   57   G01G02G03G04G05G06G07G08G09G10G11G12G13G14G15G16G17
+        G18G19G20G21G22G23G24G25G26G27G28G29G30G31G32R01R02
+        R03R04R05R06R07R08R09R10R11R12R13R14R15R16R17R18R19
+        R20R21R22R23R24R26  0  0  0  0  0  0  0  0  0  0  0
+          0  0  0  0  0  0  0  0  0  0  0  0  0  0  0  0  0
++         4  4  4  6  4  4  4  4  6  4  4  4  6  5  6  4  4
++         4  4  4  4  4  5  4  4  4  4  4  4  4  4  6  5  4
++         4  4  4  4  4  5  4 10  4  5  4  5  4  5 10  4  5
++         4  5  4  4  5  9  0  0  0  0  0  0  0  0  0  0  0
++         0  0  0  0  0  0  0  0  0  0  0  0  0  0  0  0  0
%c M  cc GPS ccc cccc cccc cccc cccc ccccc ccccc ccccc ccccc
%c cc cc ccc ccc cccc cccc cccc cccc ccccc ccccc ccccc ccccc
%f  1.2500000  1.025000000  0.00000000000  0.000000000000000
%f  0.0000000  0.000000000  0.00000000000  0.000000000000000
%i    0    0    0    0      0      0      0      0         0
%i    0    0    0    0      0      0      0      0         0
/* Center for Orbit Determination in Europe (CODE)          
/* Final GNSS orbits and GPS clocks for year-day 16306      
/* Note: Middle day of a 3-day arc GPS/GLONASS solution     
/* PCV:IGS08      OL/AL:FES2004  NONE     YN ORB:CoN CLK:CoN
*  2016 11  1 23  0  0.00000000
PG01 -14083.954307   6747.104841  21348.986821     39.124992
PG02  13743.662822  17068.228057 -14800.301184    531.571379
PG03 -22859.038236  12248.899180   5696.362029    -95.916866
PG04  20818.163876  15796.905081  -5148.940619     12.982434
PG05  17485.209490   4353.796545 -19657.404661    -80.742848
PG06   7457.068899  24732.844592  -6179.502839    267.463668
PG07  -7341.819994  21256.546137 -13629.881837    414.487315
PG08 -24771.878501  -3424.548827   9076.680520    -37.496627
PG09 -10825.016479  11784.619510 -21221.375770    236.480893
PG10   2811.113833 -18615.997841  18712.635916   -111.926805
PG11 -17119.193171   1449.205457  19685.111464   -669.260241
PG12  23363.355892  -9860.993326   7391.555830    389.438224
PG13  23421.330218  12394.266361   1064.265944    -52.610417
PG14 -16094.349154 -17677.541829  11995.281264    -43.080158
PG15  25170.936550   1901.095298   8688.050279   -332.903914
PG16 -16797.440596  -4921.841215 -20200.391798     13.738067
PG17   7719.381020  17652.263047  18709.157483   -200.011563
PG18  12564.626090 -20855.039138  10881.909820    572.306912
PG19  14086.549341  17801.149812  13264.906020   -520.755173
PG20  22361.043018 -11727.450237  -8430.400319    443.854068
PG21   4075.556381 -23613.906885 -10481.881205   -532.550584
PG22 -22887.671925   7270.728773  11687.202280    202.137228
PG23 -21217.931391   3408.239341 -15671.751858   -195.343290
PG24  15085.762426  -3576.990277  21496.788745    -25.490906
PG25  18794.381248 -18057.462641  -4660.465608   -274.388340
PG26  -8174.512577 -12900.678039 -21719.873779   -495.363597
PG27 -23297.025780 -12434.015769  -3677.299362    159.805605
PG28  -6507.961502  18561.097838  18469.445199    563.787625
PG29  13752.250975  -8893.366550 -20905.373225    645.248457
PG30  -1135.265627  26206.711184  -3758.814744    155.938031
PG31  -7375.403794 -24144.251433  -7497.821574    239.143047
PG32  -7383.705348 -17307.376471  18766.549152   -179.759937
PR01 -10917.455087  12635.962655 -19278.005955 999999.999999
PR02   9140.843936   8474.664577 -22215.922072 999999.999999
PR03  22814.482794   -390.473440 -11334.050197 999999.999999
PR04  22883.388528  -9219.821207   6468.781656 999999.999999
PR05   9855.693354 -12645.557793  19830.775800 999999.999999
PR06 -10203.379656  -8189.785656  21887.374640 999999.999999
PR07 -22965.081135    505.956076  11150.004936 999999.999999
PR08 -23152.085810   8933.326661  -5840.650767 999999.999999
PR09  -2732.875513 -18894.745234 -16906.957730 999999.999999
PR10 -10173.104237  -2817.790759 -23232.409389 999999.999999
PR11 -12481.014188  15031.922882 -16351.111729 999999.999999
PR12  -5978.251247  24654.250347   1567.153300 999999.999999
PR13   3034.373263  18788.484152  16968.620289 999999.999999
PR14  10679.354996    917.382708  23137.972634 999999.999999
PR15  12266.799196 -13577.524851  17740.154639 999999.999999
PR16   6802.277864 -24527.053257    193.157504 999999.999999
PR17  19300.173105  12508.523765 -11074.045079 999999.999999
PR18  12858.550774  -1353.878173 -21967.976739 999999.999999
PR19  -1442.996818 -15176.452081 -20452.042772 999999.999999
PR20 -14832.502161 -19858.227067  -6119.515182 999999.999999
PR21 -19305.230231 -12587.996518  10893.802128 999999.999999
PR22 -12316.789060   2008.601991  22267.305019 999999.999999
PR23   2897.016762  15956.327797  19680.955856 999999.999999
PR24  14884.145619  19637.177107   6563.630430 999999.999999
PR26 -15971.317931 -19352.107338  -4505.613083 999999.999999
*  2016 11  1 23 15  0.00000000
PG01 -14498.451794   4294.089611  21722.396617     39.126147
PG02  13850.664033  18711.486583 -12657.554252    531.566453
PG03 -22385.669040  11549.492678   8395.313038    -95.919372
PG04  20038.820322  15633.996732  -7872.842712     12.988236
PG05  15784.774343   5890.649360 -20656.397395    -80.740057
PG06   7309.610745  25311.329615  -3385.266914    267.468170
PG07  -7779.278566  19578.583995 -15750.688122    414.484461
PG08 -25515.465185  -3941.126691   6401.240313    -37.497686
PG09 -13029.711306  10880.767294 -20450.868298    236.487459
PG10   4495.993454 -19793.363123  17097.278104   -111.928816
PG11 -18186.515072   -634.850691  18774.221469   -669.262100
PG12  22638.614579  -9123.030969  10078.204164    389.438435
PG13  23287.898587  12585.335134  -1815.328794    -52.612887
PG14 -14698.172658 -17215.905407  14277.290594    -43.081844
PG15  25902.122478   2438.198597   6087.228904   -332.904878
PG16 -14903.589339  -6286.663805 -21251.241008     13.739243
PG17   5721.534659  16866.755650  20108.375599   -200.010427
PG18  13565.476078 -21299.803506   8388.588424    572.310163
PG19  12488.708177  17214.549179  15448.463636   -520.754472
PG20  21791.963421 -10745.403946 -10909.133124    443.855711
PG21   4643.138437 -22245.120571 -12830.206148   -532.549736
PG22 -21987.791243   6117.963897  13900.477909    202.127873
PG23 -22735.401568   2622.117627 -13626.077963   -195.344204
PG24  15542.277374  -1144.424676  21458.243467    -25.491685
PG25  19208.612800 -18111.238888  -1790.365234   -274.394508
PG26  -6248.733282 -14445.208425 -21379.671406   -495.368382
PG27 -22690.854930 -12418.192058  -6469.597243    159.810259
PG28  -8122.235566  19554.571174  16648.937558    563.790826
PG29  15840.395121  -7867.618382 -19807.890563    645.246960
PG30  -1474.540468  25644.622950  -6517.959407    155.938951
PG31  -7214.171858 -24887.142067  -4719.060710    239.140994
PG32  -5267.649345 -16632.689592  20045.065344   -179.774790
PR01 -13055.588685  13371.000458 -17355.554407 999999.999999
PR02   6460.051845   9244.691248 -22843.764725 999999.999999
PR03  21276.739151    -51.839305 -14010.677902 999999.999999
PR04  23422.311233  -9524.184373   3332.775720 999999.999999
PR05  12068.482108 -13401.973633  18030.832482 999999.999999
PR06  -7568.368271  -8974.295338  22633.780503 999999.999999
PR07 -21457.935883    184.256886  13841.601857 999999.999999
PR08 -23623.288761   9216.638842  -2686.996314 999999.999999
PR09  -2336.083912 -20804.385108 -14572.832032 999999.999999
PR10  -9491.006000  -5589.222671 -23025.365154 999999.999999
PR11 -11846.417573  12971.229599 -18453.318650 999999.999999
PR12  -5837.505895  24683.752661  -1659.973886 999999.999999
PR13   2710.099300  20717.969083  14614.916581 999999.999999
PR14   9978.844567   3693.748427  23167.486257 999999.999999
PR15  11595.259336 -11364.255875  19654.142857 999999.999999
PR16   6606.135997 -24343.163049   3406.056891 999999.999999
PR17  20257.886761  13224.576000  -8149.779537 999999.999999
PR18  14807.705749    428.673019 -20739.827718 999999.999999
PR19    351.724351 -13283.474691 -21775.060325 999999.999999
PR20 -14293.655583 -19062.132167  -9168.207119 999999.999999
PR21 -20254.404252 -13281.235011   7947.479487 999999.999999
PR22 -14293.317388    199.164313  21158.495595 999999.999999
PR23   1136.948353  14142.409303  21189.137806 999999.999999
PR24  14283.009915  18817.511164   9590.119881 999999.999999
PR26 -15552.402845 -18704.577994  -7623.830732 999999.999999
EOF
